OBJECT_NAME,OBJECT_ID,EPOCH,MEAN_MOTION,ECCENTRICITY,INCLINATION,RA_OF_ASC_NODE,ARG_OF_PERICENTER,MEAN_ANOMALY,EPHEMERIS_TYPE,CLASSIFICATION_TYPE,NORAD_CAT_ID,ELEMENT_SET_NO,REV_AT_EPOCH,BSTAR,MEAN_MOTION_DOT,MEAN_MOTION_DDOT
ONEWEB-0707,2024-188U,2026-06-30T23:06:42.704928,13.10376772,.00023673,87.8826,33.5155,93.5325,266.6074,0,U,61612,999,8512,.21423698E-2,.761E-5,0
ONEWEB-0708,2024-188V,2026-06-30T14:23:50.311104,13.10373865,.00022596,87.8814,33.6055,76.4266,283.7113,0,U,61613,999,8505,-.24228411E-3,-.72E-6,0
